1 36064U 93036AYB 18200.46808574 +.00000887 +00000-0 +27031-3 0  99921
2 36064 073.8437 122.7984 0067116 196.6932 163.2015 14.42276797264002
1 36065U 93036AYC 10040.58142306 +.00003896 +00000-0 +27252-3 0  9992
2 36065 074.0137 012.2459 0221708 170.6541 189.4362 14.87854867037732
1 36067U 93036AYE 18202.34230561 +.00001325 +00000-0 +29612-3 0  9994
2 36067 074.0137 085.9570 0014120 092.7764 267.5017 14.57727195281741
